{
    "links": {
        "self": "http://www.neowsapp.com/rest/v1/neo/3673917?api_key=iIulBulltgU6a56xZRHN4H3l9WmuAYTsLGpBGhQ2"
    },
    "id": "3673917",
    "neo_reference_id": "3673917",
    "name": "(2014 MB6)",
    "designation": "2014 MB6",
    "nasa_jpl_url": "http://ssd.jpl.nasa.gov/sbdb.cgi?sstr=3673917",
    "absolute_magnitude_h": 26.2,
    "estimated_diameter": {
        "kilometers": {
            "estimated_diameter_min": 0.0152951935,
            "estimated_diameter_max": 0.0342010925
        },
        "meters": {
            "estimated_diameter_min": 15.2951935344,
            "estimated_diameter_max": 34.201092472
        },
        "miles": {
            "estimated_diameter_min": 0.0095039897,
            "estimated_diameter_max": 0.021251567
        },
        "feet": {
            "estimated_diameter_min": 50.1810827555,
            "estimated_diameter_max": 112.2083122258
        }
    },
    "is_potentially_hazardous_asteroid": false,
    "close_approach_data": [
        {
            "close_approach_date": "2012-10-02",
            "close_approach_date_full": "2012-Oct-02 04:30",
            "epoch_date_close_approach": 1349152200000,
            "relative_velocity": {
                "kilometers_per_second": "8.5693960973",
                "kilometers_per_hour": "30849.8259503776",
                "miles_per_hour": "19168.882130111"
            },
            "miss_distance": {
                "astronomical": "1.1756547613",
                "lunar": "457.3297021457",
                "kilometers": "175875448.145838431",
                "miles": "109283935.9143791078"
            },
            "orbiting_body": "Juptr"
        },
        {
            "close_approach_date": "2014-06-16",
            "close_approach_date_full": "2014-Jun-16 02:12",
            "epoch_date_close_approach": 1402884720000,
            "relative_velocity": {
                "kilometers_per_second": "9.888958902",
                "kilometers_per_hour": "35600.2520470744",
                "miles_per_hour": "22120.6121678058"
            },
            "miss_distance": {
                "astronomical": "0.0118709007",
                "lunar": "4.6177803723",
                "kilometers": "1775861.459701509",
                "miles": "1103469.1425144642"
            },
            "orbiting_body": "Earth"
        },
        {
            "close_approach_date": "2036-07-03",
            "close_approach_date_full": "2036-Jul-03 15:26",
            "epoch_date_close_approach": 2098711560000,
            "relative_velocity": {
                "kilometers_per_second": "8.3565802663",
                "kilometers_per_hour": "30083.6889587629",
                "miles_per_hour": "18692.834397738"
            },
            "miss_distance": {
                "astronomical": "1.0828459383",
                "lunar": "421.2270699987",
                "kilometers": "161991445.907831421",
                "miles": "100656816.9685027698"
            },
            "orbiting_body": "Juptr"
        }
    ],
    "orbital_data": {
        "orbit_id": "5",
        "orbit_determination_date": "2017-04-06 08:40:00",
        "first_observation_date": "2014-06-21",
        "last_observation_date": "2014-07-03",
        "data_arc_in_days": 12,
        "observations_used": 33,
        "orbit_uncertainty": "7",
        "minimum_orbit_intersection": ".00918926",
        "jupiter_tisserand_invariant": "2.962",
        "epoch_osculation": "2459000.5",
        "eccentricity": ".6500880673690805",
        "semi_major_axis": "2.824048037877168",
        "inclination": "1.279950852490415",
        "ascending_node_longitude": "107.2009114643995",
        "orbital_period": "1733.430950895078",
        "perihelion_distance": ".9881681067761557",
        "perihelion_argument": "134.4142909436459",
        "aphelion_distance": "4.659927968978179",
        "perihelion_time": "2458541.259727017322",
        "mean_anomaly": "95.37530075160802",
        "mean_motion": ".2076806115721596",
        "equinox": "J2000",
        "orbit_class": {
            "orbit_class_type": "APO",
            "orbit_class_description": "Near-Earth asteroid orbits which cross the Earth’s orbit similar to that of 1862 Apollo",
            "orbit_class_range": "a (semi-major axis) > 1.0 AU; q (perihelion) < 1.017 AU"
        }
    },
    "is_sentry_object": false
}